[{"OBJECT_NAME":"TYVAK-0130","OBJECT_ID":"2021-041BF","EPOCH":"2026-03-09T11:37:42.710304","MEAN_MOTION":15.26049141,"ECCENTRICITY":0.0008953,"INCLINATION":52.9967,"RA_OF_ASC_NODE":128.603,"ARG_OF_PERICENTER":215.1647,"MEAN_ANOMALY":144.876,"EPHEMERIS_TYPE":0,"CLASSIFICATION_TYPE":"U","NORAD_CAT_ID":48606,"ELEMENT_SET_NO":999,"REV_AT_EPOCH":26515,"BSTAR":0.0003519806,"MEAN_MOTION_DOT":8.857e-5,"MEAN_MOTION_DDOT":0},{"OBJECT_NAME":"STARLINK-32809","OBJECT_ID":"2025-019W","EPOCH":"2026-03-09T02:18:04.401792","MEAN_MOTION":15.27604303,"ECCENTRICITY":8.499e-5,"INCLINATION":42.9999,"RA_OF_ASC_NODE":92.0262,"ARG_OF_PERICENTER":278.1182,"MEAN_ANOMALY":81.9574,"EPHEMERIS_TYPE":0,"CLASSIFICATION_TYPE":"U","NORAD_CAT_ID":62849,"ELEMENT_SET_NO":999,"REV_AT_EPOCH":6216,"BSTAR":0.0010160125,"MEAN_MOTION_DOT":0.00027823,"MEAN_MOTION_DDOT":0}]
